KUIPER-00071            
1 64818U 25151C   25323.71728942  .00003222  00000+0  45138-3 0  9998
2 64818  51.9014  69.3696 0007455 217.4823 142.5621 14.79941505 18988
KUIPER-00072            
1 64819U 25151D   25323.66494611  .00003120  00000+0  37626-3 0  9996
2 64819  51.9002  49.1901 0002084 224.6437 135.4361 14.86400831 19269
KUIPER-00073            
1 64820U 25151E   25323.47901735  .00004371  00000+0  59834-3 0  9991
2 64820  51.9015  70.3992 0013003 245.0574 114.9038 14.80164689 20136
KUIPER-00074            
1 64821U 25151F   25323.69706802 -.00006000  00000+0 -75804-3 0  9992
2 64821  51.9038  56.9717 0012678 264.5165  95.4351 14.79886555 19158
KUIPER-00075            
1 64822U 25151G   25323.41141095  .00053436  00000+0  13130-2 0  9996
2 64822  51.8769  37.3751 0004166 234.6488 125.4111 15.40125381 19407
KUIPER-00076            
1 64823U 25151H   25323.55931725  .00002334  00000+0  33503-3 0  9997
2 64823  51.9008  60.0752 0004188 254.9473 105.1026 14.79950947 19104
KUIPER-00077            
1 64824U 25151J   25323.55395325  .00003885  00000+0  53809-3 0  9991
2 64824  51.9024  65.1024 0006308 207.2685 152.7947 14.79954066 19031
KUIPER-00078            
1 64825U 25151K   25323.65794486 -.00007882  00000+0 -10065-2 0  9993
2 64825  51.9011  62.1401 0007135 279.0940  80.9215 14.79889526 19087
